{"type": "FeatureCollection", "features": [ {"type": "Feature", "properties": {"norad_id": 32384, "name": "GPS BIIRM-5 (PRN 29)", "group": "gps-ops", "lat": 34.23414679804379, "lon": -50.25866797412423, "alt_km": 20218.32414380717, "timestamp": "2025-12-15T14:57:58.074090+00:00", "meta": {"OBJECT_NAME": "GPS BIIRM-5 (PRN 29)", "OBJECT_ID": "2007-062A", "EPOCH": "2025-12-14T07:22:44.014368", "MEAN_MOTION": 2.00577433, "ECCENTRICITY": 0.00322391, "INCLINATION": 55.1808, "RA_OF_ASC_NODE": 281.583, "ARG_OF_PERICENTER": 162.4014, "MEAN_ANOMALY": 10.7862, "EPHEMERIS_TYPE": 0, "CLASSIFICATION_TYPE": "U", "NORAD_CAT_ID": 32384, "ELEMENT_SET_NO": 999, "REV_AT_EPOCH": 13180, "BSTAR": 0, "MEAN_MOTION_DOT": -7.8e-07, "MEAN_MOTION_DDOT": 0}, "tle": {"line1": "1 32384U 07062A   25348.30745387 -.00000078  00000+0  00000+0 0  9998", "line2": "2 32384  55.1808 281.5830 0032239 162.4014  10.7862  2.00577433131801"}}, "geometry": {"type": "Point", "coordinates": [-50.25866797412423, 34.23414679804379]}}, {"type": "Feature", "properties": {"norad_id": 32711, "name": "GPS BIIRM-6 (PRN 07)", "group": "gps-ops", "lat": -23.908695100536658, "lon": 138.77951882724312, "alt_km": 20128.639921361355, "timestamp": "2025-12-15T14:57:58.074101+00:00", "meta": {"OBJECT_NAME": "GPS BIIRM-6 (PRN 07)", "OBJECT_ID": "2008-012A", "EPOCH": "2025-12-14T16:02:03.484896", "MEAN_MOTION": 2.0056573, "ECCENTRICITY": 0.0202527, "INCLINATION": 54.4772, "RA_OF_ASC_NODE": 157.2959, "ARG_OF_PERICENTER": 244.9733, "MEAN_ANOMALY": 112.9236, "EPHEMERIS_TYPE": 0, "CLASSIFICATION_TYPE": "U", "NORAD_CAT_ID": 32711, "ELEMENT_SET_NO": 999, "REV_AT_EPOCH": 13005, "BSTAR": 0, "MEAN_MOTION_DOT": 9.8e-07, "MEAN_MOTION_DDOT": 0}, "tle": {"line1": "1 32711U 08012A   25348.66809589  .00000098  00000+0  00000+0 0  9993", "line2": "2 32711  54.4772 157.2959 0202527 244.9733 112.9236  2.00565730130054"}}, "geometry": {"type": "Point", "coordinates": [138.77951882724312, -23.908695100536658]}}, {"type": "Feature", "properties": {"norad_id": 35752, "name": "GPS BIIRM-8 (PRN 05)", "group": "gps-ops", "lat": -10.643906093235579, "lon": 27.430884329076672, "alt_km": 20194.09949278905, "timestamp": "2025-12-15T14:57:58.074112+00:00", "meta": {"OBJECT_NAME": "GPS BIIRM-8 (PRN 05)", "OBJECT_ID": "2009-043A", "EPOCH": "2025-12-14T15:32:04.041600", "MEAN_MOTION": 2.00565642, "ECCENTRICITY": 0.00517621, "INCLINATION": 56.0923, "RA_OF_ASC_NODE": 34.7078, "ARG_OF_PERICENTER": 81.8798, "MEAN_ANOMALY": 280.9533, "EPHEMERIS_TYPE": 0, "CLASSIFICATION_TYPE": "U", "NORAD_CAT_ID": 35752, "ELEMENT_SET_NO": 999, "REV_AT_EPOCH": 11966, "BSTAR": 0, "MEAN_MOTION_DOT": -9.3e-07, "MEAN_MOTION_DDOT": 0}, "tle": {"line1": "1 35752U 09043A   25348.64726900 -.00000093  00000+0  00000+0 0  9995", "line2": "2 35752  56.0923  34.7078 0051762  81.8798 280.9533  2.00565642119663"}}, "geometry": {"type": "Point", "coordinates": [27.430884329076672, -10.643906093235579]}}, {"type": "Feature", "properties": {"norad_id": 36585, "name": "GPS BIIF-1  (PRN 25)", "group": "gps-ops", "lat": 50.95607989219556, "lon": -26.412869579129655, "alt_km": 19925.565319814057, "timestamp": "2025-12-15T14:57:58.074122+00:00", "meta": {"OBJECT_NAME": "GPS BIIF-1  (PRN 25)", "OBJECT_ID": "2010-022A", "EPOCH": "2025-12-14T05:35:49.434720", "MEAN_MOTION": 2.00553343, "ECCENTRICITY": 0.01261835, "INCLINATION": 54.2999, "RA_OF_ASC_NODE": 216.0137, "ARG_OF_PERICENTER": 65.0918, "MEAN_ANOMALY": 117.1041, "EPHEMERIS_TYPE": 0, "CLASSIFICATION_TYPE": "U", "NORAD_CAT_ID": 36585, "ELEMENT_SET_NO": 999, "REV_AT_EPOCH": 11388, "BSTAR": 0, "MEAN_MOTION_DOT": 4.9e-07, "MEAN_MOTION_DDOT": 0}, "tle": {"line1": "1 36585U 10022A   25348.23321105  .00000049  00000+0  00000+0 0  9992", "line2": "2 36585  54.2999 216.0137 0126183  65.0918 117.1041  2.00553343113888"}}, "geometry": {"type": "Point", "coordinates": [-26.412869579129655, 50.95607989219556]}}, {"type": "Feature", "properties": {"norad_id": 38833, "name": "GPS BIIF-3  (PRN 24)", "group": "gps-ops", "lat": -19.863647287174203, "lon": -13.402794247522417, "alt_km": 20543.900788142186, "timestamp": "2025-12-15T14:57:58.074132+00:00", "meta": {"OBJECT_NAME": "GPS BIIF-3  (PRN 24)", "OBJECT_ID": "2012-053A", "EPOCH": "2025-12-13T20:21:34.724448", "MEAN_MOTION": 2.00565042, "ECCENTRICITY": 0.01758819, "INCLINATION": 53.5579, "RA_OF_ASC_NODE": 151.1931, "ARG_OF_PERICENTER": 64.0051, "MEAN_ANOMALY": 297.7998, "EPHEMERIS_TYPE": 0, "CLASSIFICATION_TYPE": "U", "NORAD_CAT_ID": 38833, "ELEMENT_SET_NO": 999, "REV_AT_EPOCH": 9572, "BSTAR": 0, "MEAN_MOTION_DOT": 9.2e-07, "MEAN_MOTION_DDOT": 0}, "tle": {"line1": "1 38833U 12053A   25347.84831857  .00000092  00000+0  00000+0 0  9990", "line2": "2 38833  53.5579 151.1931 0175881  64.0051 297.7998  2.00565042 95726"}}, "geometry": {"type": "Point", "coordinates": [-13.402794247522417, -19.863647287174203]}}, {"type": "Feature", "properties": {"norad_id": 39166, "name": "GPS BIIF-4  (PRN 27)", "group": "gps-ops", "lat": -45.096467434206886, "lon": -128.89940674265742, "alt_km": 20298.529199659675, "timestamp": "2025-12-15T14:57:58.074143+00:00", "meta": {"OBJECT_NAME": "GPS BIIF-4  (PRN 27)", "OBJECT_ID": "2013-023A", "EPOCH": "2025-12-14T05:03:38.216736", "MEAN_MOTION": 2.0056471, "ECCENTRICITY": 0.01375063, "INCLINATION": 54.6512, "RA_OF_ASC_NODE": 276.5088, "ARG_OF_PERICENTER": 48.2653, "MEAN_ANOMALY": 312.9132, "EPHEMERIS_TYPE": 0, "CLASSIFICATION_TYPE": "U", "NORAD_CAT_ID": 39166, "ELEMENT_SET_NO": 999, "REV_AT_EPOCH": 9217, "BSTAR": 0, "MEAN_MOTION_DOT": -7.4e-07, "MEAN_MOTION_DDOT": 0}, "tle": {"line1": "1 39166U 13023A   25348.21085899 -.00000074  00000+0  00000+0 0  9998", "line2": "2 39166  54.6512 276.5088 0137506  48.2653 312.9132  2.00564710 92171"}}, "geometry": {"type": "Point", "coordinates": [-128.89940674265742, -45.096467434206886]}}, {"type": "Feature", "properties": {"norad_id": 39533, "name": "GPS BIIF-5  (PRN 30)", "group": "gps-ops", "lat": -41.41286049730782, "lon": 116.24196474506354, "alt_km": 20141.311148748246, "timestamp": "2025-12-15T14:57:58.074153+00:00", "meta": {"OBJECT_NAME": "GPS BIIF-5  (PRN 30)", "OBJECT_ID": "2014-008A", "EPOCH": "2025-12-14T16:52:49.926432", "MEAN_MOTION": 2.00574571, "ECCENTRICITY": 0.00792742, "INCLINATION": 53.6315, "RA_OF_ASC_NODE": 156.8445, "ARG_OF_PERICENTER": 226.5365, "MEAN_ANOMALY": 132.8141, "EPHEMERIS_TYPE": 0, "CLASSIFICATION_TYPE": "U", "NORAD_CAT_ID": 39533, "ELEMENT_SET_NO": 999, "REV_AT_EPOCH": 8598, "BSTAR": 0, "MEAN_MOTION_DOT": 9.6e-07, "MEAN_MOTION_DDOT": 0}, "tle": {"line1": "1 39533U 14008A   25348.70335563  .00000096  00000+0  00000+0 0  9993", "line2": "2 39533  53.6315 156.8445 0079274 226.5365 132.8141  2.00574571 85980"}}, "geometry": {"type": "Point", "coordinates": [116.24196474506354, -41.41286049730782]}}, {"type": "Feature", "properties": {"norad_id": 39741, "name": "GPS BIIF-6  (PRN 06)", "group": "gps-ops", "lat": 55.3215033122792, "lon": 86.05551253193586, "alt_km": 20256.982430709053, "timestamp": "2025-12-15T14:57:58.074163+00:00", "meta": {"OBJECT_NAME": "GPS BIIF-6  (PRN 06)", "OBJECT_ID": "2014-026A", "EPOCH": "2025-12-14T11:43:02.437824", "MEAN_MOTION": 2.00561295, "ECCENTRICITY": 0.00392352, "INCLINATION": 56.5829, "RA_OF_ASC_NODE": 338.7083, "ARG_OF_PERICENTER": 318.7867, "MEAN_ANOMALY": 40.9297, "EPHEMERIS_TYPE": 0, "CLASSIFICATION_TYPE": "U", "NORAD_CAT_ID": 39741, "ELEMENT_SET_NO": 999, "REV_AT_EPOCH": 8483, "BSTAR": 0, "MEAN_MOTION_DOT": -8.7e-07, "MEAN_MOTION_DDOT": 0}, "tle": {"line1": "1 39741U 14026A   25348.48822266 -.00000087  00000+0  00000+0 0  9991", "line2": "2 39741  56.5829 338.7083 0039235 318.7867  40.9297  2.00561295 84839"}}, "geometry": {"type": "Point", "coordinates": [86.05551253193586, 55.3215033122792]}}, {"type": "Feature", "properties": {"norad_id": 40105, "name": "GPS BIIF-7  (PRN 09)", "group": "gps-ops", "lat": 29.38364139728972, "lon": 118.77612648916624, "alt_km": 20167.423411701904, "timestamp": "2025-12-15T14:57:58.074173+00:00", "meta": {"OBJECT_NAME": "GPS BIIF-7  (PRN 09)", "OBJECT_ID": "2014-045A", "EPOCH": "2025-12-12T01:59:18.865536", "MEAN_MOTION": 2.00572516, "ECCENTRICITY": 0.00326941, "INCLINATION": 55.2287, "RA_OF_ASC_NODE": 95.9251, "ARG_OF_PERICENTER": 119.8618, "MEAN_ANOMALY": 240.4523, "EPHEMERIS_TYPE": 0, "CLASSIFICATION_TYPE": "U", "NORAD_CAT_ID": 40105, "ELEMENT_SET_NO": 999, "REV_AT_EPOCH": 8232, "BSTAR": 0, "MEAN_MOTION_DOT": -9e-08, "MEAN_MOTION_DDOT": 0}, "tle": {"line1": "1 40105U 14045A   25346.08285724 -.00000009  00000+0  00000+0 0  9998", "line2": "2 40105  55.2287  95.9251 0032694 119.8618 240.4523  2.00572516 82323"}}, "geometry": {"type": "Point", "coordinates": [118.77612648916624, 29.38364139728972]}}, {"type": "Feature", "properties": {"norad_id": 40294, "name": "GPS BIIF-8  (PRN 03)", "group": "gps-ops", "lat": 42.59386546871611, "lon": -178.8243827542059, "alt_km": 20088.09059404466, "timestamp": "2025-12-15T14:57:58.074183+00:00", "meta": {"OBJECT_NAME": "GPS BIIF-8  (PRN 03)", "OBJECT_ID": "2014-068A", "EPOCH": "2025-12-13T10:57:14.379552", "MEAN_MOTION": 2.00564944, "ECCENTRICITY": 0.00607799, "INCLINATION": 56.8584, "RA_OF_ASC_NODE": 38.1182, "ARG_OF_PERICENTER": 69.1634, "MEAN_ANOMALY": 291.5378, "EPHEMERIS_TYPE": 0, "CLASSIFICATION_TYPE": "U", "NORAD_CAT_ID": 40294, "ELEMENT_SET_NO": 999, "REV_AT_EPOCH": 8148, "BSTAR": 0, "MEAN_MOTION_DOT": -9.5e-07, "MEAN_MOTION_DDOT": 0}, "tle": {"line1": "1 40294U 14068A   25347.45641643 -.00000095  00000+0  00000+0 0  9995", "line2": "2 40294  56.8584  38.1182 0060779  69.1634 291.5378  2.00564944 81488"}}, "geometry": {"type": "Point", "coordinates": [-178.8243827542059, 42.59386546871611]}}]}